SL-12 DEB               
1 27958U 87079AX  22259.43436761 -.00002039  00000+0 -99435-2 0  9993
2 27958  65.1775 308.4474 5249524  58.5267 342.4496  4.84264836315914